[{"OBJECT_NAME":"DIWATA-2B","OBJECT_ID":"2018-084H","EPOCH":"2026-03-09T23:44:16.821312","MEAN_MOTION":14.99967379,"ECCENTRICITY":0.00117782,"INCLINATION":98.1039,"RA_OF_ASC_NODE":261.0381,"ARG_OF_PERICENTER":125.8755,"MEAN_ANOMALY":234.3563,"EPHEMERIS_TYPE":0,"CLASSIFICATION_TYPE":"U","NORAD_CAT_ID":43678,"ELEMENT_SET_NO":999,"REV_AT_EPOCH":40134,"BSTAR":0.00041230334,"MEAN_MOTION_DOT":5.066e-5,"MEAN_MOTION_DDOT":0},{"OBJECT_NAME":"STARLINK-6208","OBJECT_ID":"2023-083V","EPOCH":"2026-03-09T02:14:37.110048","MEAN_MOTION":15.0253335,"ECCENTRICITY":0.00012824,"INCLINATION":43.0025,"RA_OF_ASC_NODE":84.7624,"ARG_OF_PERICENTER":264.9352,"MEAN_ANOMALY":95.1344,"EPHEMERIS_TYPE":0,"CLASSIFICATION_TYPE":"U","NORAD_CAT_ID":56895,"ELEMENT_SET_NO":999,"REV_AT_EPOCH":15158,"BSTAR":-6.6291507e-5,"MEAN_MOTION_DOT":-1.099e-5,"MEAN_MOTION_DDOT":0}]
